IRIDIUM 159             
1 43578U 18061K   25330.94729669 -.00000006  00000+0 -91275-5 0  9994
2 43578  86.3967 141.2646 0002029  87.7922 272.3506 14.34217656384391
IRIDIUM 180             
1 43922U 19002A   25331.29563906  .00000361  00000+0  12194-3 0  9995
2 43922  86.3963  77.9971 0002015  90.9540 269.1887 14.34221159360059
IRIDIUM 176             
1 43923U 19002B   25331.29489692  .00001335  00000+0  20783-3 0  9990
2 43923  86.6087  77.9701 0002024  99.4615 260.6831 14.72249110369545
IRIDIUM 168             
1 43924U 19002C   25331.28929591  .00000306  00000+0  10232-3 0  9992
2 43924  86.3963  78.0714 0001979  94.2908 265.8514 14.34218263360031
IRIDIUM 173             
1 43925U 19002D   25331.27661329  .00000366  00000+0  12366-3 0  9990
2 43925  86.3962  77.9738 0001916  95.1232 265.0183 14.34220688360012
IRIDIUM 169             
1 43926U 19002E   25330.91449390  .00000479  00000+0  15023-3 0  9991
2 43926  86.4206 109.7754 0000954 112.4899 247.6400 14.38613635361145
IRIDIUM 172             
1 43927U 19002F   25331.27026833  .00000356  00000+0  11997-3 0  9995
2 43927  86.3960  77.9836 0002049  89.4759 270.6671 14.34221204360029
IRIDIUM 175             
1 43928U 19002G   25331.22219334  .00001087  00000+0  16845-3 0  9990
2 43928  86.1518  21.2835 0002921 105.1372 255.0167 14.72251098369521
